{
    "links": {
        "self": "http://www.neowsapp.com/rest/v1/neo/3731585?api_key=iIulBulltgU6a56xZRHN4H3l9WmuAYTsLGpBGhQ2"
    },
    "id": "3731585",
    "neo_reference_id": "3731585",
    "name": "(2015 TV346)",
    "designation": "2015 TV346",
    "nasa_jpl_url": "http://ssd.jpl.nasa.gov/sbdb.cgi?sstr=3731585",
    "absolute_magnitude_h": 27.3,
    "estimated_diameter": {
        "kilometers": {
            "estimated_diameter_min": 0.0092162655,
            "estimated_diameter_max": 0.0206081961
        },
        "meters": {
            "estimated_diameter_min": 9.216265485,
            "estimated_diameter_max": 20.6081961232
        },
        "miles": {
            "estimated_diameter_min": 0.0057267201,
            "estimated_diameter_max": 0.0128053354
        },
        "feet": {
            "estimated_diameter_min": 30.2370924539,
            "estimated_diameter_max": 67.6121941689
        }
    },
    "is_potentially_hazardous_asteroid": false,
    "close_approach_data": [
        {
            "close_approach_date": "2015-10-11",
            "close_approach_date_full": "2015-Oct-11 01:57",
            "epoch_date_close_approach": 1444528620000,
            "relative_velocity": {
                "kilometers_per_second": "5.5581104555",
                "kilometers_per_hour": "20009.1976399482",
                "miles_per_hour": "12432.937278"
            },
            "miss_distance": {
                "astronomical": "0.0333601415",
                "lunar": "12.9770950435",
                "kilometers": "4990606.111298605",
                "miles": "3101018.841406549"
            },
            "orbiting_body": "Earth"
        }
    ],
    "orbital_data": {
        "orbit_id": "5",
        "orbit_determination_date": "2017-04-06 08:31:12",
        "first_observation_date": "2015-10-14",
        "last_observation_date": "2015-10-19",
        "data_arc_in_days": 5,
        "observations_used": 27,
        "orbit_uncertainty": "8",
        "minimum_orbit_intersection": ".0322153",
        "jupiter_tisserand_invariant": "4.073",
        "epoch_osculation": "2457310.5",
        "eccentricity": ".4055760970652735",
        "semi_major_axis": "1.721282564968309",
        "inclination": "2.749999792224546",
        "ascending_node_longitude": "219.2355642684685",
        "orbital_period": "824.853234077132",
        "perihelion_distance": "1.023171500321959",
        "perihelion_argument": "150.0589570433295",
        "aphelion_distance": "2.419393629614659",
        "perihelion_time": "2457299.836795354154",
        "mean_anomaly": "4.653862667822914",
        "mean_motion": ".4364412784327356",
        "equinox": "J2000",
        "orbit_class": {
            "orbit_class_type": "AMO",
            "orbit_class_description": "Near-Earth asteroid orbits similar to that of 1221 Amor",
            "orbit_class_range": "1.017 AU < q (perihelion) < 1.3 AU"
        }
    },
    "is_sentry_object": false
}